[Satellite]
VERSION=1.1
NAME=CORVUS BC1
NICKNAME=CORVUS BC1
TLE1=1 42847U 17042Y   19317.16761058  .00000340  00000-0  38732-4 0  9998
TLE2=2 42847  97.5469 205.2628 0007785 285.9787  74.0574 14.92124219127007
STATUS=0
